ORBCOMM FM05 [-]        
1 25117U 97084F   24102.72919085  .00001802  00000+0  58202-3 0  9994
2 25117  45.0153 274.1093 0003386 209.6416 150.4243 14.42463877378238
ORBCOMM FM06 [+]        
1 25118U 97084G   24102.76092521  .00001910  00000+0  61392-3 0  9990
2 25118  45.0145 274.1334 0002578 216.1812 159.5001 14.42481403379152
ORBCOMM FM07 [-]        
1 25119U 97084H   24102.74765013  .00001793  00000+0  57981-3 0  9990
2 25119  45.0139 274.7173 0004103 200.8344 159.2339 14.42403582379141
ORBCOMM FM03 [-]        
1 25158U 98007B   24103.15978350  .00001074  00000+0  44270-3 0  9994
2 25158 107.9765 331.7041 0048953 281.2761  78.2878 14.32022313362421
ORBCOMM FM04 [+]        
1 25159U 98007C   24103.15352851  .00001016  00000+0  42020-3 0  9994
2 25159 107.9745 334.6095 0044495 279.2088  80.4020 14.32278795362563
ORBCOMM FM17 [-]        
1 25413U 98046A   24102.77031133  .00000929  00000+0  38714-3 0  9991
2 25413  44.9937 130.3935 0003694 243.5210 116.5257 14.32995180341249
ORBCOMM FM18 [-]        
1 25414U 98046B   24103.16753021  .00001665  00000+0  61960-3 0  9990
2 25414  44.9949  56.2151 0005354 285.4322  74.5933 14.35708550342413
ORBCOMM FM19 [+]        
1 25415U 98046C   24102.60645373  .00001559  00000+0  58511-3 0  9999
2 25415  44.9956  60.2389 0004135 280.6580 248.9988 14.35540036342127
